NORAD_CAT_ID,OBJECT_NAME,OBJECT_TYPE,EPOCH,MEAN_MOTION,ECCENTRICITY,INCLINATION,RA_OF_ASC_NODE,ARG_OF_PERICENTER,MEAN_ANOMALY,BSTAR,MEAN_MOTION_DOT,MEAN_MOTION_DDOT,TLE_LINE0,TLE_LINE1,TLE_LINE2,SEMIMAJOR_AXIS,PERIOD,APOGEE,PERIGEE,DECAYED
50818.0,STARLINK-3336,PAYLOAD,2022-01-21 22:00:00,15.76913247,0.0001135,53.2173,124.7441,52.3524,339.0017,-0.0054701,-0.00820823,0.0,0 STARLINK-3336,1 50818U 22001R   22021.91667824 -.00820823  00000-0 -54701-2 0  9991,2 50818  53.2173 124.7441 0001135  52.3524 339.0017 15.76913247  2920,6717.329000000002,91.318,339.957,338.432,0.0
50818.0,STARLINK-3336,PAYLOAD,2022-01-22 14:00:01,15.75699974,0.0001319,53.2169,121.4299,60.9544,155.7753,-0.0053296,-0.00763056,0.0,0 STARLINK-3336,1 50818U 22001R   22022.58334491 -.00763056  00000-0 -53296-2 0  9998,2 50818  53.2169 121.4299 0001319  60.9544 155.7753 15.75699974  3031,6720.776999999999,91.388,343.529,341.756,0.0
50818.0,STARLINK-3336,PAYLOAD,2022-01-22 22:00:00,15.75156076,0.0001123,53.2175,119.7743,61.1838,247.1486,-0.0059175,-0.00821324,0.0,0 STARLINK-3336,1 50818U 22001R   22022.91667824 -.00821324  00000-0 -59175-2 0  9999,2 50818  53.2175 119.7743 0001123  61.1838 247.1486 15.75156076  3832,6722.324000000001,91.42,344.944,343.434,0.0
50818.0,STARLINK-3336,PAYLOAD,2022-01-23 14:00:01,15.73975624,0.0001729,53.2174,116.4697,34.2568,95.2089,-0.006083,-0.00803702,0.0,0 STARLINK-3336,1 50818U 22001R   22023.58334491 -.00803702  00000-0 -60830-2 0  9994,2 50818  53.2174 116.4697 0001729  34.2568  95.2089 15.73975624  3192,6725.685,91.488,348.713,346.38699999999994,0.0
50818.0,STARLINK-3336,PAYLOAD,2022-01-23 22:00:00,15.73251281,0.0001388,53.2173,114.8178,50.5044,168.4866,-0.00055046,-0.00077336,0.0,0 STARLINK-3336,1 50818U 22001R   22023.91667824 -.00077336  00000-0 -55046-3 0  9990,2 50818  53.2173 114.8178 0001388  50.5044 168.4866 15.73251281  3998,6727.749,91.53,350.548,348.68,0.0
50818.0,STARLINK-3336,PAYLOAD,2022-01-24 14:00:01,15.73246925,0.0001622,53.2157,111.5161,35.2223,1.8495,-0.00015591,-0.00022488,0.0,0 STARLINK-3336,1 50818U 22001R   22024.58334491 -.00022488  00000-0 -15591-3 0  9994,2 50818  53.2157 111.5161 0001622  35.2223   1.8495 15.73246925  4107,6727.761,91.53,350.718,348.535,0.0
50818.0,STARLINK-3336,PAYLOAD,2022-01-24 18:00:02,15.73237216,0.0001636999999999,53.2154,110.6912,30.916,230.7041,-0.00021584,-0.00030851,0.0,0 STARLINK-3336,1 50818U 22001R   22024.75002315 -.00030851  00000-0 -21584-3 0  9992,2 50818  53.2154 110.6912 0001637  30.9160 230.7041 15.73237216  3388,6727.7890000000025,91.531,350.755,348.55300000000005,0.0
50818.0,STARLINK-3336,PAYLOAD,2022-01-26 05:29:07,15.73187346,0.0002047,53.2162,103.3729,46.0967,314.0222,2.2531e-05,2.54e-05,0.0,0 STARLINK-3336,1 50818U 22001R   22026.22856107  .00002540  00000-0  22531-4 0  9998,2 50818  53.2162 103.3729 0002047  46.0967 314.0222 15.73187346  4354,6727.931,91.534,351.173,348.4190000000001,0.0
50818.0,STARLINK-3336,PAYLOAD,2022-01-26 11:35:02,15.73206827,0.0002003,53.2153,102.1154,45.5538,314.5646,0.00014475,0.00019748,0.0,0 STARLINK-3336,1 50818U 22001R   22026.48267243  .00019748  00000-0  14475-3 0  9998,2 50818  53.2153 102.1154 0002003  45.5538 314.5646 15.73206827  4398,6727.876,91.533,351.088,348.39300000000014,0.0
50818.0,STARLINK-3336,PAYLOAD,2022-01-26 16:09:29,15.73224796,0.0002109,53.2153,101.1727,47.1666,312.9531,0.00023044,0.00031879,0.0,0 STARLINK-3336,1 50818U 22001R   22026.67325527  .00031879  00000-0  23044-3 0  9990,2 50818  53.2153 101.1727 0002109  47.1666 312.9531 15.73224796  3153,6727.824000000001,91.532,351.108,348.271,0.0
50818.0,STARLINK-3336,PAYLOAD,2022-01-27 11:58:43,15.73198258,0.0003033,53.2162,97.0856,30.5839,329.5358,-6.623600000000001e-05,-9.909e-05,0.0,0 STARLINK-3336,1 50818U 22001R   22027.49911340 -.00009909  00000-0 -66236-4 0  9997,2 50818  53.2162  97.0856 0003033  30.5839 329.5358 15.73198258  3282,6727.9,91.533,351.806,347.725,0.0
50818.0,STARLINK-3336,PAYLOAD,2022-01-27 13:30:12,15.73194107,0.0001159,53.2155,96.7702,58.7261,301.3873,-0.00010153,-0.0001484,0.0,0 STARLINK-3336,1 50818U 22001R   22027.56263974 -.00014840  00000-0 -10153-3 0  9994,2 50818  53.2155  96.7702 0001159  58.7261 301.3873 15.73194107  4569,6727.9119999999975,91.534,350.557,348.997,0.0
50818.0,STARLINK-3336,PAYLOAD,2022-01-28 04:45:00,15.73201786,0.00019,53.2163,93.6258,50.5942,309.5246,3.1876e-05,3.855e-05,0.0,0 STARLINK-3336,1 50818U 22001R   22028.19792422  .00003855  00000-0  31876-4 0  9997,2 50818  53.2163  93.6258 0001900  50.5942 309.5246 15.73201786  4667,6727.89,91.533,351.033,348.477,0.0
50818.0,STARLINK-3336,PAYLOAD,2022-01-28 09:19:27,15.73214075,0.0001961,53.2157,92.6848,35.7864,324.3287,0.00022777,0.00031486,0.0,0 STARLINK-3336,1 50818U 22001R   22028.38850947  .00031486  00000-0  22777-3 0  9995,2 50818  53.2157  92.6848 0001961  35.7864 324.3287 15.73214075  3427,6727.855,91.532,351.039,348.401,0.0
50818.0,STARLINK-3336,PAYLOAD,2022-01-28 13:53:53,15.73225504,0.0001988,53.2157,91.7419,35.2918,324.8234,0.00020912,0.00028862,0.0,0 STARLINK-3336,1 50818U 22001R   22028.57909075  .00028862  00000-0  20912-3 0  9996,2 50818  53.2157  91.7419 0001988  35.2918 324.8234 15.73225504  4725,6727.821999999999,91.532,351.025,348.35,0.0
50818.0,STARLINK-3336,PAYLOAD,2022-01-29 03:37:11,15.73240631,0.0001941,53.2147,88.9133,31.6215,328.4922,8.157e-05,0.00010862,0.0,0 STARLINK-3336,1 50818U 22001R   22029.15083098  .00010862  00000-0  81570-4 0  9998,2 50818  53.2147  88.9133 0001941  31.6215 328.4922 15.73240631  4816,6727.779,91.531,350.95,348.338,0.0
50818.0,STARLINK-3336,PAYLOAD,2022-01-29 09:43:06,15.73241187,0.0002,53.2161,87.6542,35.3329,324.7823,9.0729e-05,0.00012153,0.0,0 STARLINK-3336,1 50818U 22001R   22029.40493838  .00012153  00000-0  90729-4 0  9994,2 50818  53.2161  87.6542 0002000  35.3329 324.7823 15.73241187  3585,6727.778,91.531,350.98800000000006,348.297,0.0
50818.0,STARLINK-3336,PAYLOAD,2022-01-29 12:46:04,15.73241749,0.0002226,53.2164,87.0265,29.2024,330.912,9.2049e-05,0.0001234,0.0,0 STARLINK-3336,1 50818U 22001R   22029.53199340  .00012340  00000-0  92049-4 0  9994,2 50818  53.2164  87.0265 0002226  29.2024 330.9120 15.73241749  4874,6727.776,91.531,351.139,348.144,0.0
50818.0,STARLINK-3336,PAYLOAD,2022-01-29 20:23:28,15.7322538,0.0001828,53.2158,85.4539,32.0615,328.0516,3.4057e-05,4.166e-05,0.0,0 STARLINK-3336,1 50818U 22001R   22029.84963185  .00004166  00000-0  34057-4 0  9996,2 50818  53.2158  85.4539 0001828  32.0615 328.0516 15.73225380  3653,6727.823,91.532,350.918,348.458,0.0
50818.0,STARLINK-3336,PAYLOAD,2022-01-30 04:00:54,15.73133545,0.0002035,53.2157,83.8826,52.1032,308.0172,-8.8585e-05,-0.00012999,0.0,0 STARLINK-3336,1 50818U 22001R   22030.16729832 -.00012999  00000-0 -88585-4 0  9992,2 50818  53.2157  83.8826 0002035  52.1032 308.0172 15.73133545  4973,6728.085,91.537,351.319,348.58,0.0
50818.0,STARLINK-3336,PAYLOAD,2022-01-30 10:06:47,15.73223202,0.0002476,53.2155,82.6251,49.1032,311.0202,0.00016015,0.00021938,0.0,0 STARLINK-3336,1 50818U 22001R   22030.42138782  .00021938  00000-0  16015-3 0  9998,2 50818  53.2155  82.6251 0002476  49.1032 311.0202 15.73223202  5019,6727.829000000002,91.532,351.36,348.028,0.0
50818.0,STARLINK-3336,PAYLOAD,2022-01-30 20:47:08,15.73207266,0.0002136,53.2155,80.4237,32.37,327.745,0.00015206,0.0002078,0.0,0 STARLINK-3336,1 50818U 22001R   22030.86607464  .00020780  00000-0  15206-3 0  9999,2 50818  53.2155  80.4237 0002136  32.3700 327.7450 15.73207266  3815,6727.874,91.533,351.177,348.302,0.0
50818.0,STARLINK-3336,PAYLOAD,2022-01-31 02:53:04,15.73202988,0.0002109,53.2155,79.1672,36.1749,323.9413,7.4744e-05,9.883e-05,0.0,0 STARLINK-3336,1 50818U 22001R   22031.12018806  .00009883  00000-0  74744-4 0  9999,2 50818  53.2155  79.1672 0002109  36.1749 323.9413 15.73202988  5127,6727.887,91.533,351.171,348.333,0.0
50818.0,STARLINK-3336,PAYLOAD,2022-01-31 08:58:59,15.7321419,0.0002125,53.2155,77.9094,35.5525,324.5636,3.9697e-05,4.957e-05,0.0,0 STARLINK-3336,1 50818U 22001R   22031.37429770  .00004957  00000-0  39697-4 0  9997,2 50818  53.2155  77.9094 0002125  35.5525 324.5636 15.73214190  3898,6727.855,91.532,351.149,348.29,0.0
50818.0,STARLINK-3336,PAYLOAD,2022-01-31 15:04:53,15.73233703,0.0001588,53.2157,76.6504,32.5793,327.5325,9.7872e-05,0.00013157,0.0,0 STARLINK-3336,1 50818U 22001R   22031.62840163  .00013157  00000-0  97872-4 0  9999,2 50818  53.2157  76.6504 0001588  32.5793 327.5325 15.73233703  5204,6727.799,91.531,350.732,348.596,0.0
50818.0,STARLINK-3336,PAYLOAD,2022-02-01 03:16:44,15.73223508,0.0002016,53.2155,74.1362,38.1187,321.9975,6.3803e-05,8.351e-05,0.0,0 STARLINK-3336,1 50818U 22001R   22032.13662632  .00008351  00000-0  63803-4 0  9996,2 50818  53.2155  74.1362 0002016  38.1187 321.9975 15.73223508  5282,6727.828,91.532,351.0490000000001,348.337,0.0
50818.0,STARLINK-3336,PAYLOAD,2022-02-01 09:22:39,15.73206056,0.000208,53.2151,72.8783,33.1317,326.9833,-2.6351e-06,-9.91e-06,0.0,0 STARLINK-3336,1 50818U 22001R   22032.39074014 -.00000991  00000-0 -26351-5 0  9997,2 50818  53.2151  72.8783 0002080  33.1317 326.9833 15.73206056  5323,6727.878000000002,91.533,351.142,348.344,0.0
50818.0,STARLINK-3336,PAYLOAD,2022-02-02 08:14:53,15.73170161,0.000232,53.2152,68.1632,22.9404,337.172,-7.6656e-05,-0.00011353,0.0,0 STARLINK-3336,1 50818U 22001R   22033.34367068 -.00011353  00000-0 -76656-4 0  9993,2 50818  53.2152  68.1632 0002320  22.9404 337.1720 15.73170161  5477,6727.98,91.535,351.406,348.284,0.0
50818.0,STARLINK-3336,PAYLOAD,2022-02-02 18:55:15,15.73172563,0.0002055,53.2155,65.9617,25.6987,334.4135,7.9058e-06,4.87e-06,0.0,0 STARLINK-3336,1 50818U 22001R   22033.78837861  .00000487  00000-0  79058-5 0  9998,2 50818  53.2155  65.9617 0002055  25.6987 334.4135 15.73172563  4274,6727.973000000001,91.535,351.221,348.456,0.0
